STARLINK-3302           
1 50842U 22001AR  26068.60980750 -.00000050  00000+0  14976-4 0  9997
2 50842  53.2182 179.4820 0001456  96.2762 263.8396 15.08837644230245
DISKSAT B               
1 67220U 25305B   26068.81497770  .00012481  00000+0  82401-3 0  9990
2 67220  45.0018 250.2098 0003783 311.4052  48.6498 15.07484556 12311
